[{"OBJECT_NAME":"HULIANWANG DIGUI-147","OBJECT_ID":"2026-013B","EPOCH":"2026-03-09T18:17:01.201344","MEAN_MOTION":13.45208806,"ECCENTRICITY":0.00021169,"INCLINATION":50.0219,"RA_OF_ASC_NODE":353.0049,"ARG_OF_PERICENTER":22.4343,"MEAN_ANOMALY":337.6628,"EPHEMERIS_TYPE":0,"CLASSIFICATION_TYPE":"U","NORAD_CAT_ID":67523,"ELEMENT_SET_NO":999,"REV_AT_EPOCH":681,"BSTAR":0.00012576751,"MEAN_MOTION_DOT":-5.5e-7,"MEAN_MOTION_DDOT":0},{"OBJECT_NAME":"TRANSAT","OBJECT_ID":"1977-106A","EPOCH":"2026-03-09T22:36:56.309760","MEAN_MOTION":13.48958064,"ECCENTRICITY":0.00238578,"INCLINATION":89.6398,"RA_OF_ASC_NODE":75.4661,"ARG_OF_PERICENTER":304.6792,"MEAN_ANOMALY":116.4808,"EPHEMERIS_TYPE":0,"CLASSIFICATION_TYPE":"U","NORAD_CAT_ID":10457,"ELEMENT_SET_NO":999,"REV_AT_EPOCH":37919,"BSTAR":0.00012409053,"MEAN_MOTION_DOT":8.8e-7,"MEAN_MOTION_DDOT":0}]
